SEMAPHORE_L_00020001-61
1 39575U 25680F   26070.40793981  .00000000  00000+0  00000-0 0  9995
2 39575  97.8000   0.0000 0000000   0.0000  90.0000 15.21936487    11
SEMAPHORE_L_00020001-62
1 39576U 23816CE  26070.40793981  .00000000  00000+0  00000-0 0  9995
2 39576  97.8000   0.0000 0000000   0.0000  91.5000 15.21936487    18
SEMAPHORE_L_00020001-63
1 39577U 26337RO  26070.40793981  .00000000  00000+0  00000-0 0  9997
2 39577  97.8000   0.0000 0000000   0.0000  93.0000 15.21936487    16
SEMAPHORE_L_00020001-64
1 39578U 22951QI  26070.40793981  .00000000  00000+0  00000-0 0  9996
2 39578  97.8000   0.0000 0000000   0.0000  94.5000 15.21936487    13
SEMAPHORE_L_00020001-65
1 39579U 25023SM  26070.40793981  .00000000  00000+0  00000-0 0  9990
2 39579  97.8000   0.0000 0000000   0.0000  96.0000 15.21936487    11
SEMAPHORE_L_00020001-66
1 39580U 25522ZZ  26070.40793981  .00000000  00000+0  00000-0 0  9996
2 39580  97.8000   0.0000 0000000   0.0000  97.5000 15.21936487    19
SEMAPHORE_L_00020001-67
1 39581U 23254YC  26070.40793981  .00000000  00000+0  00000-0 0  9997
2 39581  97.8000   0.0000 0000000   0.0000  99.0000 15.21936487    17
SEMAPHORE_L_00020001-68
1 39582U 25697RZ  26070.40793981  .00000000  00000+0  00000-0 0  9991
2 39582  97.8000   0.0000 0000000   0.0000 100.5000 15.21936487    16
SEMAPHORE_L_00020001-69
1 39583U 22404ZR  26070.40793981  .00000000  00000+0  00000-0 0  9995
2 39583  97.8000   0.0000 0000000   0.0000 102.0000 15.21936487    14
SEMAPHORE_L_00020001-70
1 39584U 23273MF  26070.40793981  .00000000  00000+0  00000-0 0  9991
2 39584  97.8000   0.0000 0000000   0.0000 103.5000 15.21936487    11
SEMAPHORE_L_00020001-71
1 39585U 26664JR  26070.40793981  .00000000  00000+0  00000-0 0  9999
2 39585  97.8000   0.0000 0000000   0.0000 105.0000 15.21936487    19
SEMAPHORE_L_00020001-72
1 39586U 23827OU  26070.40793981  .00000000  00000+0  00000-0 0  9998
2 39586  97.8000   0.0000 0000000   0.0000 106.5000 15.21936487    16
SEMAPHORE_L_00020001-73
1 39587U 23412XA  26070.40793981  .00000000  00000+0  00000-0 0  9999
2 39587  97.8000   0.0000 0000000   0.0000 108.0000 15.21936487    14
SEMAPHORE_L_00020001-74
1 39588U 24447VK  26070.40793981  .00000000  00000+0  00000-0 0  9999
2 39588  97.8000   0.0000 0000000   0.0000 109.5000 15.21936487    11
SEMAPHORE_L_00020001-75
1 39589U 23460QJ  26070.40793981  .00000000  00000+0  00000-0 0  9994
2 39589  97.8000   0.0000 0000000   0.0000 111.0000 15.21936487    10
SEMAPHORE_L_00020001-76
1 39590U 25098II  26070.40793981  .00000000  00000+0  00000-0 0  9995
2 39590  97.8000   0.0000 0000000   0.0000 112.5000 15.21936487    18
SEMAPHORE_L_00020001-77
1 39591U 23903XC  26070.40793981  .00000000  00000+0  00000-0 0  9999
2 39591  97.8000   0.0000 0000000   0.0000 114.0000 15.21936487    16
SEMAPHORE_L_00020001-78
1 39592U 24374ZE  26070.40793981  .00000000  00000+0  00000-0 0  9993
2 39592  97.8000   0.0000 0000000   0.0000 115.5000 15.21936487    13
SEMAPHORE_L_00020001-79
1 39593U 25577VC  26070.40793981  .00000000  00000+0  00000-0 0  9990
2 39593  97.8000   0.0000 0000000   0.0000 117.0000 15.21936487    11
SEMAPHORE_L_00020001-80
1 39594U 24429EY  26070.40793981  .00000000  00000+0  00000-0 0  9996
2 39594  97.8000   0.0000 0000000   0.0000 118.5000 15.21936487    18
SEMAPHORE_L_00020001-81
1 39595U 24028IL  26070.40793981  .00000000  00000+0  00000-0 0  9992
2 39595  97.8000   0.0000 0000000   0.0000 120.0000 15.21936487    17
SEMAPHORE_L_00020001-82
1 39596U 26672DD  26070.40793981  .00000000  00000+0  00000-0 0  9990
2 39596  97.8000   0.0000 0000000   0.0000 121.5000 15.21936487    14
SEMAPHORE_L_00020001-83
1 39597U 25528EE  26070.40793981  .00000000  00000+0  00000-0 0  9990
2 39597  97.8000   0.0000 0000000   0.0000 123.0000 15.21936487    12
SEMAPHORE_L_00020001-84
1 39598U 25583JF  26070.40793981  .00000000  00000+0  00000-0 0  9992
2 39598  97.8000   0.0000 0000000   0.0000 124.5000 15.21936487    19
SEMAPHORE_L_00020001-85
1 39599U 24054OR  26070.40793981  .00000000  00000+0  00000-0 0  9995
2 39599  97.8000   0.0000 0000000   0.0000 126.0000 15.21936487    17
SEMAPHORE_L_00020001-86
1 39600U 24127QE  26070.40793981  .00000000  00000+0  00000-0 0  9999
2 39600  97.8000   0.0000 0000000   0.0000 127.5000 15.21936487    16
SEMAPHORE_L_00020001-87
1 39601U 25254MB  26070.40793981  .00000000  00000+0  00000-0 0  9992
2 39601  97.8000   0.0000 0000000   0.0000 129.0000 15.21936487    14
SEMAPHORE_L_00020001-88
1 39602U 25395YC  26070.40793981  .00000000  00000+0  00000-0 0  9999
2 39602  97.8000   0.0000 0000000   0.0000 130.5000 15.21936487    12
SEMAPHORE_L_00020001-89
1 39603U 25858WO  26070.40793981  .00000000  00000+0  00000-0 0  9994
2 39603  97.8000   0.0000 0000000   0.0000 132.0000 15.21936487    10
SEMAPHORE_L_00020001-90
1 39604U 26574WF  26070.40793981  .00000000  00000+0  00000-0 0  9991
2 39604  97.8000   0.0000 0000000   0.0000 133.5000 15.21936487    17
SEMAPHORE_L_00020001-91
1 39605U 23599CS  26070.40793981  .00000000  00000+0  00000-0 0  9996
2 39605  97.8000   0.0000 0000000   0.0000 135.0000 15.21936487    15
SEMAPHORE_L_00020001-92
1 39606U 25724FZ  26070.40793981  .00000000  00000+0  00000-0 0  9999
2 39606  97.8000   0.0000 0000000   0.0000 136.5000 15.21936487    12
SEMAPHORE_L_00020001-93
1 39607U 22207YZ  26070.40793981  .00000000  00000+0  00000-0 0  9993
2 39607  97.8000   0.0000 0000000   0.0000 138.0000 15.21936487    10
SEMAPHORE_L_00020001-94
1 39608U 26353NZ  26070.40793981  .00000000  00000+0  00000-0 0  9990
2 39608  97.8000   0.0000 0000000   0.0000 139.5000 15.21936487    17
SEMAPHORE_L_00020001-95
1 39609U 25425AA  26070.40793981  .00000000  00000+0  00000-0 0  9990
2 39609  97.8000   0.0000 0000000   0.0000 141.0000 15.21936487    16
SEMAPHORE_L_00020001-96
1 39610U 22621CV  26070.40793981  .00000000  00000+0  00000-0 0  9997
2 39610  97.8000   0.0000 0000000   0.0000 142.5000 15.21936487    14
SEMAPHORE_L_00020001-97
1 39611U 26179KX  26070.40793981  .00000000  00000+0  00000-0 0  9990
2 39611  97.8000   0.0000 0000000   0.0000 144.0000 15.21936487    12
SEMAPHORE_L_00020001-98
1 39612U 25278DB  26070.40793981  .00000000  00000+0  00000-0 0  9990
2 39612  97.8000   0.0000 0000000   0.0000 145.5000 15.21936487    19
SEMAPHORE_L_00020001-99
1 39613U 24869EC  26070.40793981  .00000000  00000+0  00000-0 0  9996
2 39613  97.8000   0.0000 0000000   0.0000 147.0000 15.21936487    17
SEMAPHORE_L_00020001-100
1 39614U 25329IJ  26070.40793981  .00000000  00000+0  00000-0 0  9999
2 39614  97.8000   0.0000 0000000   0.0000 148.5000 15.21936487    14
SEMAPHORE_L_00020001-101
1 39615U 26091NV  26070.40793981  .00000000  00000+0  00000-0 0  9997
2 39615  97.8000   0.0000 0000000   0.0000 150.0000 15.21936487    13
SEMAPHORE_L_00020001-102
1 39616U 26602PC  26070.40793981  .00000000  00000+0  00000-0 0  9996
2 39616  97.8000   0.0000 0000000   0.0000 151.5000 15.21936487    10
SEMAPHORE_L_00020001-103
1 39617U 25423IX  26070.40793981  .00000000  00000+0  00000-0 0  9997
2 39617  97.8000   0.0000 0000000   0.0000 153.0000 15.21936487    18
SEMAPHORE_L_00020001-104
1 39618U 23363ZU  26070.40793981  .00000000  00000+0  00000-0 0  9999
2 39618  97.8000   0.0000 0000000   0.0000 154.5000 15.21936487    15
SEMAPHORE_L_00020001-105
1 39619U 24681DP  26070.40793981  .00000000  00000+0  00000-0 0  9994
2 39619  97.8000   0.0000 0000000   0.0000 156.0000 15.21936487    13
SEMAPHORE_L_00020001-106
1 39620U 24780UZ  26070.40793981  .00000000  00000+0  00000-0 0  9996
2 39620  97.8000   0.0000 0000000   0.0000 157.5000 15.21936487    11
SEMAPHORE_L_00020001-107
1 39621U 23682HU  26070.40793981  .00000000  00000+0  00000-0 0  9997
2 39621  97.8000   0.0000 0000000   0.0000 159.0000 15.21936487    19
SEMAPHORE_L_00020001-108
1 39622U 25659KV  26070.40793981  .00000000  00000+0  00000-0 0  9994
2 39622  97.8000   0.0000 0000000   0.0000 160.5000 15.21936487    17
SEMAPHORE_L_00020001-109
1 39623U 24842OJ  26070.40793981  .00000000  00000+0  00000-0 0  9998
2 39623  97.8000   0.0000 0000000   0.0000 162.0000 15.21936487    15
SEMAPHORE_L_00020001-110
1 39624U 25878OY  26070.40793981  .00000000  00000+0  00000-0 0  9999
2 39624  97.8000   0.0000 0000000   0.0000 163.5000 15.21936487    12
SEMAPHORE_L_00020001-111
1 39625U 22548O   26070.40793981  .00000000  00000+0  00000-0 0  9991
2 39625  97.8000   0.0000 0000000   0.0000 165.0000 15.21936487    10
SEMAPHORE_L_00020001-112
1 39626U 26888UC  26070.40793981  .00000000  00000+0  00000-0 0  9993
2 39626  97.8000   0.0000 0000000   0.0000 166.5000 15.21936487    17
SEMAPHORE_L_00020001-113
1 39627U 25789RG  26070.40793981  .00000000  00000+0  00000-0 0  9993
2 39627  97.8000   0.0000 0000000   0.0000 168.0000 15.21936487    15
SEMAPHORE_L_00020001-114
1 39628U 25472IY  26070.40793981  .00000000  00000+0  00000-0 0  9993
2 39628  97.8000   0.0000 0000000   0.0000 169.5000 15.21936487    12
SEMAPHORE_L_00020001-115
1 39629U 22685KD  26070.40793981  .00000000  00000+0  00000-0 0  9997
2 39629  97.8000   0.0000 0000000   0.0000 171.0000 15.21936487    11
SEMAPHORE_L_00020001-116
1 39630U 24769NJ  26070.40793981  .00000000  00000+0  00000-0 0  9994
2 39630  97.8000   0.0000 0000000   0.0000 172.5000 15.21936487    19
SEMAPHORE_L_00020001-117
1 39631U 25937CG  26070.40793981  .00000000  00000+0  00000-0 0  9993
2 39631  97.8000   0.0000 0000000   0.0000 174.0000 15.21936487    17
SEMAPHORE_L_00020001-118
1 39632U 25340SR  26070.40793981  .00000000  00000+0  00000-0 0  9992
2 39632  97.8000   0.0000 0000000   0.0000 175.5000 15.21936487    14
SEMAPHORE_L_00020001-119
1 39633U 24180MT  26070.40793981  .00000000  00000+0  00000-0 0  9994
2 39633  97.8000   0.0000 0000000   0.0000 177.0000 15.21936487    12
SEMAPHORE_L_00020001-120
1 39634U 25695LS  26070.40793981  .00000000  00000+0  00000-0 0  9997
2 39634  97.8000   0.0000 0000000   0.0000 178.5000 15.21936487    19
